STARLINK-34232          
1 65019U 25161E   25221.58335648 -.00956668  00000+0 -43507-2 0  9992
2 65019  53.1540 206.3281 0001094  71.1144 116.5687 15.85436742  2882
STARLINK-34772          
1 65020U 25161F   25221.58335648 -.00965534  00000+0 -43917-2 0  9991
2 65020  53.1540 206.3230 0001132  71.1126 119.0205 15.85454672  2887
STARLINK-34778          
1 65021U 25161G   25221.58335648 -.00965513  00000+0 -43902-2 0  9993
2 65021  53.1537 206.3171 0000925  66.2950 126.5559 15.85463188  2727
STARLINK-34789          
1 65022U 25161H   25221.58335648 -.00973498  00000+0 -44280-2 0  9995
2 65022  53.1537 206.3112 0001131  72.9286 122.7760 15.85473616  2728
STARLINK-34858          
1 65023U 25161J   25221.58335648 -.00985242  00000+0 -44841-2 0  9999
2 65023  53.1537 206.3056 0001098  67.0643 131.1619 15.85490235  2723
STARLINK-34773          
1 65024U 25161K   25221.58335648 -.00994957  00000+0 -45307-2 0  9991
2 65024  53.1538 206.2999 0001053  62.2901 138.6975 15.85503568  2726
STARLINK-34727          
1 65025U 25161L   25222.16668981 -.00999598  00000+0 -48315-2 0  9994
2 65025  53.1541 203.3536 0000756  77.3173 216.4779 15.84290631  2868
STARLINK-34804          
1 65026U 25161M   25222.16668981 -.01006197  00000+0 -48670-2 0  9994
2 65026  53.1541 203.3482 0000782  77.4449 219.1125 15.84291486  2869
STARLINK-34655          
1 65027U 25161N   25221.58335648 -.01006491  00000+0 -45826-2 0  9998
2 65027  53.1538 206.2835 0000826  72.6153 136.2068 15.85536736  2774
STARLINK-34807          
1 65028U 25161P   25221.58335648 -.01021122  00000+0 -46536-2 0  9996
2 65028  53.1538 206.2779 0001064  69.9486 141.6431 15.85550848  2779
STARLINK-34731          
1 65029U 25161Q   25221.58335648 -.01027854  00000+0 -46856-2 0  9990
2 65029  53.1538 206.2722 0001042  65.9054 148.3700 15.85561821  2777
STARLINK-34614          
1 65030U 25161R   25221.58335648 -.01024820  00000+0 -46685-2 0  9992
2 65030  53.1534 206.2666 0000877  66.7710 150.0584 15.85570367  2770
STARLINK-34677          
1 65031U 25161S   25221.58335648 -.01037276  00000+0 -47282-2 0  9996
2 65031  53.1536 206.2611 0000958  75.6905 143.8150 15.85587348  2774
STARLINK-34656          
1 65032U 25161T   25221.58335648 -.01042161  00000+0 -47516-2 0  9996
2 65032  53.1537 206.2552 0000787  75.9163 146.2708 15.85596261  2779
STARLINK-34671          
1 65033U 25161U   25221.58335648 -.01050318  00000+0 -47899-2 0  9994
2 65033  53.1535 206.2494 0000994  74.8482 149.9536 15.85609483  2775
STARLINK-34610          
1 65034U 25161V   25221.58335648 -.01056753  00000+0 -48202-2 0  9993
2 65034  53.1536 206.2442 0001169  67.8705 159.6003 15.85619421  2674
STARLINK-34286          
1 65035U 25161W   25221.58335648 -.01065616  00000+0 -48632-2 0  9999
2 65035  53.1539 206.2386 0001158  71.4603 158.7677 15.85630634  2880
STARLINK-34770          
1 65036U 25161X   25221.58335648 -.01069578  00000+0 -48815-2 0  9994
2 65036  53.1537 206.2329 0000986  71.7100 161.1462 15.85641411  2783
STARLINK-34776          
1 65037U 25161Y   25221.58335648 -.01078982  00000+0 -49261-2 0  9990
2 65037  53.1539 206.2280 0001039  68.8028 166.5293 15.85657180  2880
STARLINK-34827          
1 65038U 25161Z   25221.58335648 -.01100574  00000+0 -50306-2 0  9996
2 65038  53.1538 206.2226 0000972  73.4752 164.5013 15.85687671  2887
STARLINK-34721          
1 65039U 25161AA  25221.58335648 -.01092576  00000+0 -49913-2 0  9991
2 65039  53.1537 206.2168 0001079  73.7880 166.9034 15.85677732  2781
STARLINK-34819          
1 65040U 25161AB  25221.58335648 -.01103141  00000+0 -50439-2 0  9999
2 65040  53.1537 206.2111 0000792  78.8894 164.5572 15.85689727  2882
STARLINK-34820          
1 65041U 25161AC  25221.58335648 -.01131442  00000+0 -51859-2 0  9992
2 65041  53.1536 206.2054 0001052  75.9248 170.2363 15.85708311  2882
STARLINK-34824          
1 65042U 25161AD  25221.58335648 -.01174022  00000+0 -52926-2 0  9990
2 65042  53.1535 206.1992 0000967  72.4826 176.6388 15.85717086  2886
HULIANWANG DIGUI 6A     
1 65043U 25162A   25222.53359223 -.00000020  00000+0  82662-4 0  9999
2 65043  50.0019 329.4489 0008002 302.3981  57.6149 14.04172865  1573
HULIANWANG DIGUI 6B     
1 65044U 25162B   25222.62975236  .00000009  00000+0  10000-3 0  9990
2 65044  50.0089 329.0231 0007706 292.7859 207.3261 14.04724788  1596
HULIANWANG DIGUI 6C     
1 65045U 25162C   25222.62885885  .00000010  00000+0  99198-4 0  9999
2 65045  49.9998 329.0167 0007599 306.1152 195.5606 14.05503231  1597
HULIANWANG DIGUI 6D     
1 65046U 25162D   25222.52922326  .00000008  00000+0  96912-4 0  9999
2 65046  50.0010 329.4244 0006259 302.8683  57.1619 14.06045944  1589
HULIANWANG DIGUI 6E     
1 65047U 25162E   25222.52869513 -.00000001  00000+0  91817-4 0  9991
2 65047  50.0037 329.4257 0007876 311.9586  48.0648 14.06115205  1581
HULIANWANG DIGUI 6F     
1 65048U 25162F   25222.52768357  .00000016  00000+0  10182-3 0  9996
2 65048  50.0070 329.4255 0005883 310.1453  49.8937 14.06242104  1586
HULIANWANG DIGUI 6G     
1 65049U 25162G   25222.52735818  .00000012  00000+0  99474-4 0  9991
2 65049  50.0087 329.4265 0006981 316.0173  44.0177 14.06275624  1586
HULIANWANG DIGUI 6H     
1 65050U 25162H   25222.52657735  .00000001  00000+0  92131-4 0  9995
2 65050  50.0052 329.4169 0007172 320.7430  39.2955 14.06380468  1587
HULIANWANG DIGUI 6J     
1 65051U 25162J   25222.52621199 -.00000007  00000+0  87613-4 0  9997
2 65051  50.0062 329.4167 0005661 317.4744  42.5723 14.06427504  1582
CZ-8A R/B               
1 65052U 25162K   25222.54796127 -.00000001  00000+0  58468-4 0  9994
2 65052  50.0032 327.4864 0118728 122.8724 238.3683 14.30549925  1610
NISAR                   
1 65053U 25163A   25222.55395847  .00000177  00000+0  62272-4 0  9992
2 65053  98.4437  49.3785 0012457 235.1791 124.8229 14.45887074  1590
GSLV R/B                
1 65054U 25163B   25222.54174101  .00000737  00000+0  21259-3 0  9991
2 65054  98.4380  49.3834 0010743 273.2869  86.7094 14.47499426  1596
PRSC-S1                 
1 65055U 25164A   25222.47722811  .00004205  00000+0  30042-3 0  9996
2 65055  41.1290 239.6735 0006119 297.1738  62.8451 15.05341039  1546
STARLINK-34788          
1 65056U 25165A   25222.50002315 -.01886471  00000+0 -19275-1 0  9991
2 65056  97.6038 294.7231 0001452 100.0110 206.4280 15.67944048  2631
STARLINK-34745          
1 65057U 25165B   25222.50002315 -.01894034  00000+0 -19358-1 0  9998
2 65057  97.6035 294.7240 0001471  99.0686 209.2903 15.67948845  2637
STARLINK-34779          
1 65058U 25165C   25222.50002315 -.01885363  00000+0 -19265-1 0  9991
2 65058  97.6041 294.7250 0001390  96.7755 213.5084 15.67941226  2631
STARLINK-34803          
1 65059U 25165D   25222.50002315 -.01889856  00000+0 -19312-1 0  9996
2 65059  97.6039 294.7259 0001421  99.9029 212.2965 15.67946787  2633
STARLINK-34717          
1 65060U 25165E   25222.50002315 -.01896693  00000+0 -19388-1 0  9998
2 65060  97.6040 294.7266 0001375  96.1754 217.9443 15.67950591  2638
STARLINK-34750          
1 65061U 25165F   25222.50002315 -.01887666  00000+0 -19289-1 0  9999
2 65061  97.6038 294.7275 0001365 100.4336 215.6084 15.67944620  2632
STARLINK-34708          
1 65062U 25165G   25222.50002315 -.01889506  00000+0 -19309-1 0  9998
2 65062  97.6040 294.7286 0001400  95.3946 222.5681 15.67945714  2632
STARLINK-34798          
1 65063U 25165H   25222.50002315 -.01894707  00000+0 -19367-1 0  9992
2 65063  97.6039 294.7293 0001360  94.6810 225.2024 15.67948409  2631
STARLINK-34793          
1 65064U 25165J   25222.50002315 -.01891143  00000+0 -19327-1 0  9990
2 65064  97.6041 294.7303 0001370  91.5754 230.2274 15.67947057  2474
STARLINK-34806          
1 65065U 25165K   25222.50002315 -.01887895  00000+0 -19289-1 0  9997
2 65065  97.6037 294.7313 0001438 102.1400 221.5814 15.67947187  2638
STARLINK-34739          
1 65066U 25165L   25222.50002315 -.01884431  00000+0 -19253-1 0  9992
2 65066  97.6041 294.7322 0001355 101.1526 224.4922 15.67943223  2426
STARLINK-34802          
1 65067U 25165M   25222.50002315 -.01895095  00000+0 -19370-1 0  9991
2 65067  97.6039 294.7331 0001362  92.6659 234.8976 15.67950234  2630
STARLINK-34810          
1 65068U 25165N   25222.50002315 -.01890936  00000+0 -19325-1 0  9991
2 65068  97.6039 294.7340 0001295  92.9059 236.5788 15.67947350  2638
STARLINK-34809          
1 65069U 25165P   25222.50002315 -.01893083  00000+0 -19348-1 0  9993
2 65069  97.6041 294.7349 0001403  98.2244 233.1821 15.67948369  2639
STARLINK-34794          
1 65070U 25165Q   25222.50002315 -.01894255  00000+0 -19362-1 0  9993
2 65070  97.6040 294.7355 0001344  93.6439 239.6839 15.67948320  2633
STARLINK-34805          
1 65071U 25165R   25222.50002315 -.01891563  00000+0 -19332-1 0  9990
2 65071  97.6038 294.7366 0001316  91.7638 243.4832 15.67947402  2638
STARLINK-34735          
1 65072U 25165S   25222.50002315 -.01894534  00000+0 -19364-1 0  9997
2 65072  97.6040 294.7373 0001347  97.1874 239.9800 15.67949820  2637
STARLINK-34781          
1 65073U 25165T   25222.50002315 -.01885678  00000+0 -19268-1 0  9990
2 65073  97.6040 294.7381 0001394 101.0052 238.0877 15.67941978  2632
STARLINK-34780          
1 65074U 25165U   25222.50002315 -.01891764  00000+0 -19333-1 0  9997
2 65074  97.6042 294.7396 0001403  89.7260 251.2825 15.67948150  2634
CREW DRAGON 11          
1 65077U 25166A   25221.50930763  .00013944  00000+0  24819-3 0  9997
2 65077  51.6345  42.7784 0001398 174.2494 185.8512 15.50419347522496
HULIANWANG DIGUI 7A     
1 65106U 25168A   25217.55517209 -.00000149  00000+0  00000+0 0  9994
2 65106  50.0041  53.5003 0007032 231.7565 166.4584 13.98793657   155
HULIANWANG DIGUI 7B     
1 65107U 25168B   25222.12196401  .00000011  00000+0  11145-3 0  9994
2 65107  50.0009  35.0744 0009809 238.9916 121.0023 13.98287422   793
